[{"OBJECT_NAME":"IRIDIUM 33 DEB","OBJECT_ID":"1997-051RX","EPOCH":"2026-02-01T11:10:48.989856","MEAN_MOTION":14.71906726,"ECCENTRICITY":0.00228765,"INCLINATION":86.3307,"RA_OF_ASC_NODE":302.5073,"ARG_OF_PERICENTER":28.5038,"MEAN_ANOMALY":331.7424,"EPHEMERIS_TYPE":0,"CLASSIFICATION_TYPE":"U","NORAD_CAT_ID":35744,"ELEMENT_SET_NO":999,"REV_AT_EPOCH":88077,"BSTAR":0.00099999205,"MEAN_MOTION_DOT":6.311e-5,"MEAN_MOTION_DDOT":0},{"OBJECT_NAME":"IRIDIUM 33 DEB","OBJECT_ID":"1997-051SF","EPOCH":"2026-02-01T12:06:03.557376","MEAN_MOTION":14.84656982,"ECCENTRICITY":0.00126119,"INCLINATION":86.3378,"RA_OF_ASC_NODE":306.6233,"ARG_OF_PERICENTER":357.4908,"MEAN_ANOMALY":2.625,"EPHEMERIS_TYPE":0,"CLASSIFICATION_TYPE":"U","NORAD_CAT_ID":35797,"ELEMENT_SET_NO":999,"REV_AT_EPOCH":88093,"BSTAR":0.0015849989,"MEAN_MOTION_DOT":0.00013458,"MEAN_MOTION_DDOT":0},{"OBJECT_NAME":"IRIDIUM 33 DEB","OBJECT_ID":"1997-051SQ","EPOCH":"2026-01-29T15:26:20.667264","MEAN_MOTION":14.5800501,"ECCENTRICITY":0.00111634,"INCLINATION":86.3434,"RA_OF_ASC_NODE":359.5265,"ARG_OF_PERICENTER":271.8875,"MEAN_ANOMALY":88.1056,"EPHEMERIS_TYPE":0,"CLASSIFICATION_TYPE":"U","NORAD_CAT_ID":35806,"ELEMENT_SET_NO":999,"REV_AT_EPOCH":87022,"BSTAR":0.0020076783,"MEAN_MOTION_DOT":9.254e-5,"MEAN_MOTION_DDOT":0},{"OBJECT_NAME":"IRIDIUM 33 DEB","OBJECT_ID":"1997-051ST","EPOCH":"2026-02-01T11:48:38.697120","MEAN_MOTION":14.77132013,"ECCENTRICITY":0.0015226,"INCLINATION":86.3298,"RA_OF_ASC_NODE":312.2181,"ARG_OF_PERICENTER":70.4446,"MEAN_ANOMALY":289.8416,"EPHEMERIS_TYPE":0,"CLASSIFICATION_TYPE":"U","NORAD_CAT_ID":35809,"ELEMENT_SET_NO":999,"REV_AT_EPOCH":87556,"BSTAR":0.0014241403,"MEAN_MOTION_DOT":0.00010114,"MEAN_MOTION_DDOT":0},{"OBJECT_NAME":"IRIDIUM 33 DEB","OBJECT_ID":"1997-051SW","EPOCH":"2026-01-31T23:08:12.634368","MEAN_MOTION":14.43377459,"ECCENTRICITY":0.00185845,"INCLINATION":86.3729,"RA_OF_ASC_NODE":37.3933,"ARG_OF_PERICENTER":17.2286,"MEAN_ANOMALY":342.9541,"EPHEMERIS_TYPE":0,"CLASSIFICATION_TYPE":"U","NORAD_CAT_ID":35846,"ELEMENT_SET_NO":999,"REV_AT_EPOCH":72053,"BSTAR":0.00056115927,"MEAN_MOTION_DOT":1.916e-5,"MEAN_MOTION_DDOT":0},{"OBJECT_NAME":"IRIDIUM 33 DEB","OBJECT_ID":"1997-051SY","EPOCH":"2026-01-28T03:22:20.375904","MEAN_MOTION":14.8000646,"ECCENTRICITY":0.0011005,"INCLINATION":86.391,"RA_OF_ASC_NODE":355.2359,"ARG_OF_PERICENTER":54.7364,"MEAN_ANOMALY":305.4885,"EPHEMERIS_TYPE":0,"CLASSIFICATION_TYPE":"U","NORAD_CAT_ID":35848,"ELEMENT_SET_NO":999,"REV_AT_EPOCH":67376,"BSTAR":0.0028630742,"MEAN_MOTION_DOT":0.00021746,"MEAN_MOTION_DDOT":0},{"OBJECT_NAME":"IRIDIUM 33 DEB","OBJECT_ID":"1997-051TA","EPOCH":"2026-01-26T14:02:48.234336","MEAN_MOTION":14.801895,"ECCENTRICITY":0.0012927,"INCLINATION":86.3507,"RA_OF_ASC_NODE":323.8293,"ARG_OF_PERICENTER":51.8525,"MEAN_ANOMALY":308.3859,"EPHEMERIS_TYPE":0,"CLASSIFICATION_TYPE":"U","NORAD_CAT_ID":35850,"ELEMENT_SET_NO":999,"REV_AT_EPOCH":72020,"BSTAR":0.0024975,"MEAN_MOTION_DOT":0.00019055,"MEAN_MOTION_DDOT":0},{"OBJECT_NAME":"IRIDIUM 33 DEB","OBJECT_ID":"1997-051TY","EPOCH":"2026-02-01T01:42:34.093152","MEAN_MOTION":14.82530874,"ECCENTRICITY":0.00139385,"INCLINATION":86.3463,"RA_OF_ASC_NODE":319.9337,"ARG_OF_PERICENTER":34.4564,"MEAN_ANOMALY":325.7559,"EPHEMERIS_TYPE":0,"CLASSIFICATION_TYPE":"U","NORAD_CAT_ID":35915,"ELEMENT_SET_NO":999,"REV_AT_EPOCH":8831,"BSTAR":0.0016052599,"MEAN_MOTION_DOT":0.00012953,"MEAN_MOTION_DDOT":0},{"OBJECT_NAME":"IRIDIUM 33 DEB","OBJECT_ID":"1997-051UB","EPOCH":"2026-02-01T08:04:20.253792","MEAN_MOTION":14.51743983,"ECCENTRICITY":0.00262191,"INCLINATION":86.3973,"RA_OF_ASC_NODE":54.0802,"ARG_OF_PERICENTER":8.2473,"MEAN_ANOMALY":51.9062,"EPHEMERIS_TYPE":0,"CLASSIFICATION_TYPE":"U","NORAD_CAT_ID":35918,"ELEMENT_SET_NO":999,"REV_AT_EPOCH":85941,"BSTAR":0.00081812555,"MEAN_MOTION_DOT":3.32e-5,"MEAN_MOTION_DDOT":0},{"OBJECT_NAME":"IRIDIUM 33 DEB","OBJECT_ID":"1997-051UN","EPOCH":"2026-01-29T11:06:17.737056","MEAN_MOTION":15.06688745,"ECCENTRICITY":0.00107949,"INCLINATION":86.3373,"RA_OF_ASC_NODE":289.9396,"ARG_OF_PERICENTER":203.96,"MEAN_ANOMALY":156.1135,"EPHEMERIS_TYPE":0,"CLASSIFICATION_TYPE":"U","NORAD_CAT_ID":35929,"ELEMENT_SET_NO":999,"REV_AT_EPOCH":88497,"BSTAR":0.0041655479,"MEAN_MOTION_DOT":0.00062382,"MEAN_MOTION_DDOT":0},{"OBJECT_NAME":"IRIDIUM 33 DEB","OBJECT_ID":"1997-051US","EPOCH":"2026-01-26T07:03:47.139840","MEAN_MOTION":14.41499085,"ECCENTRICITY":0.0020974,"INCLINATION":86.3411,"RA_OF_ASC_NODE":16.2802,"ARG_OF_PERICENTER":76.0961,"MEAN_ANOMALY":349.2089,"EPHEMERIS_TYPE":0,"CLASSIFICATION_TYPE":"U","NORAD_CAT_ID":36011,"ELEMENT_SET_NO":999,"REV_AT_EPOCH":65182,"BSTAR":0.0008342,"MEAN_MOTION_DOT":2.734e-5,"MEAN_MOTION_DDOT":0},{"OBJECT_NAME":"IRIDIUM 33 DEB","OBJECT_ID":"1997-051UT","EPOCH":"2026-02-01T03:03:06.524640","MEAN_MOTION":14.20108239,"ECCENTRICITY":0.02143483,"INCLINATION":86.4416,"RA_OF_ASC_NODE":287.2002,"ARG_OF_PERICENTER":100.4415,"MEAN_ANOMALY":262.1005,"EPHEMERIS_TYPE":0,"CLASSIFICATION_TYPE":"U","NORAD_CAT_ID":36012,"ELEMENT_SET_NO":999,"REV_AT_EPOCH":66199,"BSTAR":0.0026798533,"MEAN_MOTION_DOT":7.217e-5,"MEAN_MOTION_DDOT":0},{"OBJECT_NAME":"IRIDIUM 33 DEB","OBJECT_ID":"1997-051VK","EPOCH":"2026-02-01T10:55:00.617664","MEAN_MOTION":14.98470547,"ECCENTRICITY":0.00141754,"INCLINATION":86.3212,"RA_OF_ASC_NODE":282.7954,"ARG_OF_PERICENTER":221.8315,"MEAN_ANOMALY":138.1834,"EPHEMERIS_TYPE":0,"CLASSIFICATION_TYPE":"U","NORAD_CAT_ID":36028,"ELEMENT_SET_NO":999,"REV_AT_EPOCH":87883,"BSTAR":0.0015172155,"MEAN_MOTION_DOT":0.00018217,"MEAN_MOTION_DDOT":0},{"OBJECT_NAME":"IRIDIUM 33 DEB","OBJECT_ID":"1997-051VM","EPOCH":"2026-01-24T14:56:36.067488","MEAN_MOTION":14.46837356,"ECCENTRICITY":0.00181395,"INCLINATION":86.3241,"RA_OF_ASC_NODE":349.3058,"ARG_OF_PERICENTER":26.3839,"MEAN_ANOMALY":333.8283,"EPHEMERIS_TYPE":0,"CLASSIFICATION_TYPE":"U","NORAD_CAT_ID":36080,"ELEMENT_SET_NO":999,"REV_AT_EPOCH":48034,"BSTAR":0.0010876958,"MEAN_MOTION_DOT":3.968e-5,"MEAN_MOTION_DDOT":0},{"OBJECT_NAME":"IRIDIUM 33 DEB","OBJECT_ID":"1997-051VQ","EPOCH":"2026-01-27T06:30:59.928480","MEAN_MOTION":14.43410047,"ECCENTRICITY":0.0028722,"INCLINATION":86.3438,"RA_OF_ASC_NODE":14.5429,"ARG_OF_PERICENTER":76.9378,"MEAN_ANOMALY":283.5026,"EPHEMERIS_TYPE":0,"CLASSIFICATION_TYPE":"U","NORAD_CAT_ID":36083,"ELEMENT_SET_NO":999,"REV_AT_EPOCH":86106,"BSTAR":0.0010248,"MEAN_MOTION_DOT":3.496e-5,"MEAN_MOTION_DDOT":0},{"OBJECT_NAME":"IRIDIUM 33 DEB","OBJECT_ID":"1997-051VU","EPOCH":"2026-01-23T23:36:36.057888","MEAN_MOTION":14.74315028,"ECCENTRICITY":0.0031976,"INCLINATION":86.2866,"RA_OF_ASC_NODE":280.0146,"ARG_OF_PERICENTER":26.3583,"MEAN_ANOMALY":333.9253,"EPHEMERIS_TYPE":0,"CLASSIFICATION_TYPE":"U","NORAD_CAT_ID":36390,"ELEMENT_SET_NO":999,"REV_AT_EPOCH":66884,"BSTAR":0.0018086,"MEAN_MOTION_DOT":0.00012103,"MEAN_MOTION_DDOT":0},{"OBJECT_NAME":"IRIDIUM 33 DEB","OBJECT_ID":"1997-051VZ","EPOCH":"2026-02-01T06:41:43.524672","MEAN_MOTION":14.46028467,"ECCENTRICITY":0.00080904,"INCLINATION":86.3779,"RA_OF_ASC_NODE":30.8421,"ARG_OF_PERICENTER":337.2171,"MEAN_ANOMALY":22.8671,"EPHEMERIS_TYPE":0,"CLASSIFICATION_TYPE":"U","NORAD_CAT_ID":36483,"ELEMENT_SET_NO":999,"REV_AT_EPOCH":65876,"BSTAR":0.00050929787,"MEAN_MOTION_DOT":1.834e-5,"MEAN_MOTION_DDOT":0},{"OBJECT_NAME":"IRIDIUM 33 DEB","OBJECT_ID":"1997-051WG","EPOCH":"2026-01-31T07:22:43.536576","MEAN_MOTION":14.77734932,"ECCENTRICITY":6.82e-5,"INCLINATION":86.367,"RA_OF_ASC_NODE":348.0821,"ARG_OF_PERICENTER":84.5214,"MEAN_ANOMALY":275.6084,"EPHEMERIS_TYPE":0,"CLASSIFICATION_TYPE":"U","NORAD_CAT_ID":36490,"ELEMENT_SET_NO":999,"REV_AT_EPOCH":87216,"BSTAR":0.0016588764,"MEAN_MOTION_DOT":0.00011924,"MEAN_MOTION_DDOT":0},{"OBJECT_NAME":"IRIDIUM 33 DEB","OBJECT_ID":"1997-051WK","EPOCH":"2026-02-01T04:18:34.784064","MEAN_MOTION":14.66130407,"ECCENTRICITY":0.00101554,"INCLINATION":86.3596,"RA_OF_ASC_NODE":349.2571,"ARG_OF_PERICENTER":162.4065,"MEAN_ANOMALY":197.7503,"EPHEMERIS_TYPE":0,"CLASSIFICATION_TYPE":"U","NORAD_CAT_ID":36493,"ELEMENT_SET_NO":999,"REV_AT_EPOCH":75257,"BSTAR":0.0011418373,"MEAN_MOTION_DOT":6.3e-5,"MEAN_MOTION_DDOT":0},{"OBJECT_NAME":"IRIDIUM 33 DEB","OBJECT_ID":"1997-051XH","EPOCH":"2026-02-01T05:17:39.263712","MEAN_MOTION":14.51779045,"ECCENTRICITY":0.0026336,"INCLINATION":86.351,"RA_OF_ASC_NODE":21.3841,"ARG_OF_PERICENTER":29.1614,"MEAN_ANOMALY":331.1055,"EPHEMERIS_TYPE":0,"CLASSIFICATION_TYPE":"U","NORAD_CAT_ID":37548,"ELEMENT_SET_NO":999,"REV_AT_EPOCH":66264,"BSTAR":0.00099009,"MEAN_MOTION_DOT":4.017e-5,"MEAN_MOTION_DDOT":0},{"OBJECT_NAME":"IRIDIUM 33 DEB","OBJECT_ID":"1997-051XK","EPOCH":"2026-02-01T16:22:30.951552","MEAN_MOTION":14.68171339,"ECCENTRICITY":0.00023687,"INCLINATION":86.3789,"RA_OF_ASC_NODE":1.2793,"ARG_OF_PERICENTER":9.207,"MEAN_ANOMALY":350.9188,"EPHEMERIS_TYPE":0,"CLASSIFICATION_TYPE":"U","NORAD_CAT_ID":37550,"ELEMENT_SET_NO":999,"REV_AT_EPOCH":87080,"BSTAR":0.0013101293,"MEAN_MOTION_DOT":7.559e-5,"MEAN_MOTION_DDOT":0},{"OBJECT_NAME":"IRIDIUM 33 DEB","OBJECT_ID":"1997-051XX","EPOCH":"2026-01-30T17:19:20.605728","MEAN_MOTION":14.57076566,"ECCENTRICITY":0.00222443,"INCLINATION":86.374,"RA_OF_ASC_NODE":22.2264,"ARG_OF_PERICENTER":306.0555,"MEAN_ANOMALY":231.3773,"EPHEMERIS_TYPE":0,"CLASSIFICATION_TYPE":"U","NORAD_CAT_ID":37562,"ELEMENT_SET_NO":999,"REV_AT_EPOCH":87041,"BSTAR":0.0014233107,"MEAN_MOTION_DOT":6.45e-5,"MEAN_MOTION_DDOT":0},{"OBJECT_NAME":"IRIDIUM 33 DEB","OBJECT_ID":"1997-051YA","EPOCH":"2026-01-27T04:18:16.744608","MEAN_MOTION":14.51795697,"ECCENTRICITY":0.00107549,"INCLINATION":86.3509,"RA_OF_ASC_NODE":349.7791,"ARG_OF_PERICENTER":296.2657,"MEAN_ANOMALY":63.7443,"EPHEMERIS_TYPE":0,"CLASSIFICATION_TYPE":"U","NORAD_CAT_ID":37565,"ELEMENT_SET_NO":999,"REV_AT_EPOCH":66496,"BSTAR":0.0011012246,"MEAN_MOTION_DOT":4.451e-5,"MEAN_MOTION_DDOT":0}]
